{"type": "FeatureCollection", "features": [ {"type": "Feature", "properties": {"norad_id": 36047, "name": "COSMOS 2251 DEB", "group": "cosmos-2251-debris", "lat": -52.95628856844339, "lon": 163.8330986850765, "alt_km": 587.3586315658149, "timestamp": "2025-12-18T23:35:49.460287+00:00", "meta": {"OBJECT_NAME": "COSMOS 2251 DEB", "OBJECT_ID": "1993-036AXJ", "EPOCH": "2025-12-18T04:53:35.477376", "MEAN_MOTION": 14.9621864, "ECCENTRICITY": 0.00084577, "INCLINATION": 74.0358, "RA_OF_ASC_NODE": 323.1177, "ARG_OF_PERICENTER": 350.3843, "MEAN_ANOMALY": 9.7178, "EPHEMERIS_TYPE": 0, "CLASSIFICATION_TYPE": "U", "NORAD_CAT_ID": 36047, "ELEMENT_SET_NO": 999, "REV_AT_EPOCH": 66021, "BSTAR": 0.0023104884, "MEAN_MOTION_DOT": 0.00026146, "MEAN_MOTION_DDOT": 0}, "tle": {"line1": "1 36047U 93036AXJ 25352.20388284  .00026146  00000+0  23105-2 0  9994", "line2": "2 36047  74.0358 323.1177 0008457 350.3843   9.7178 14.96218640660211"}}, "geometry": {"type": "Point", "coordinates": [163.8330986850765, -52.95628856844339]}}, {"type": "Feature", "properties": {"norad_id": 36048, "name": "COSMOS 2251 DEB", "group": "cosmos-2251-debris", "lat": -58.85744292779789, "lon": -100.43085692675432, "alt_km": 757.4644132079002, "timestamp": "2025-12-18T23:35:49.460298+00:00", "meta": {"OBJECT_NAME": "COSMOS 2251 DEB", "OBJECT_ID": "1993-036AXK", "EPOCH": "2025-12-18T06:13:09.506784", "MEAN_MOTION": 14.37861852, "ECCENTRICITY": 0.00268522, "INCLINATION": 74.057, "RA_OF_ASC_NODE": 289.134, "ARG_OF_PERICENTER": 337.964, "MEAN_ANOMALY": 172.881, "EPHEMERIS_TYPE": 0, "CLASSIFICATION_TYPE": "U", "NORAD_CAT_ID": 36048, "ELEMENT_SET_NO": 999, "REV_AT_EPOCH": 85581, "BSTAR": 0.00023437473, "MEAN_MOTION_DOT": 6.84e-06, "MEAN_MOTION_DDOT": 0}, "tle": {"line1": "1 36048U 93036AXK 25352.25913781  .00000684  00000+0  23437-3 0  9994", "line2": "2 36048  74.0570 289.1340 0026852 337.9640 172.8810 14.37861852855817"}}, "geometry": {"type": "Point", "coordinates": [-100.43085692675432, -58.85744292779789]}}, {"type": "Feature", "properties": {"norad_id": 36049, "name": "COSMOS 2251 DEB", "group": "cosmos-2251-debris", "lat": -47.320410594160016, "lon": -54.685055607730504, "alt_km": 686.4148737199203, "timestamp": "2025-12-18T23:35:49.460308+00:00", "meta": {"OBJECT_NAME": "COSMOS 2251 DEB", "OBJECT_ID": "1993-036AXL", "EPOCH": "2025-12-18T14:20:22.320384", "MEAN_MOTION": 14.62218491, "ECCENTRICITY": 0.0010414, "INCLINATION": 74.029, "RA_OF_ASC_NODE": 107.9596, "ARG_OF_PERICENTER": 195.963, "MEAN_ANOMALY": 164.121, "EPHEMERIS_TYPE": 0, "CLASSIFICATION_TYPE": "U", "NORAD_CAT_ID": 36049, "ELEMENT_SET_NO": 999, "REV_AT_EPOCH": 85450, "BSTAR": 0.0010230965, "MEAN_MOTION_DOT": 5.132e-05, "MEAN_MOTION_DDOT": 0}, "tle": {"line1": "1 36049U 93036AXL 25352.59748056  .00005132  00000+0  10231-2 0  9993", "line2": "2 36049  74.0290 107.9596 0010414 195.9630 164.1210 14.62218491854501"}}, "geometry": {"type": "Point", "coordinates": [-54.685055607730504, -47.320410594160016]}}, {"type": "Feature", "properties": {"norad_id": 36050, "name": "COSMOS 2251 DEB", "group": "cosmos-2251-debris", "lat": 73.53886784635736, "lon": -74.42477125975223, "alt_km": 615.6203807236052, "timestamp": "2025-12-18T23:35:49.460319+00:00", "meta": {"OBJECT_NAME": "COSMOS 2251 DEB", "OBJECT_ID": "1993-036AXM", "EPOCH": "2025-12-15T21:35:48.459552", "MEAN_MOTION": 15.01080492, "ECCENTRICITY": 0.00887608, "INCLINATION": 74.0305, "RA_OF_ASC_NODE": 187.588, "ARG_OF_PERICENTER": 266.4769, "MEAN_ANOMALY": 92.6264, "EPHEMERIS_TYPE": 0, "CLASSIFICATION_TYPE": "U", "NORAD_CAT_ID": 36050, "ELEMENT_SET_NO": 999, "REV_AT_EPOCH": 67082, "BSTAR": 0.00042445305, "MEAN_MOTION_DOT": 5.866e-05, "MEAN_MOTION_DDOT": 0}, "tle": {"line1": "1 36050U 93036AXM 25349.89986643  .00005866  00000+0  42445-3 0  9997", "line2": "2 36050  74.0305 187.5880 0088760 266.4769  92.6264 15.01080492670823"}}, "geometry": {"type": "Point", "coordinates": [-74.42477125975223, 73.53886784635736]}}, {"type": "Feature", "properties": {"norad_id": 36053, "name": "COSMOS 2251 DEB", "group": "cosmos-2251-debris", "lat": 72.63641388869183, "lon": -107.03837649282379, "alt_km": 671.9357297708275, "timestamp": "2025-12-18T23:35:49.460330+00:00", "meta": {"OBJECT_NAME": "COSMOS 2251 DEB", "OBJECT_ID": "1993-036AXQ", "EPOCH": "2025-12-18T09:58:37.845984", "MEAN_MOTION": 14.57247175, "ECCENTRICITY": 0.00325425, "INCLINATION": 73.8703, "RA_OF_ASC_NODE": 141.7937, "ARG_OF_PERICENTER": 88.978, "MEAN_ANOMALY": 271.5111, "EPHEMERIS_TYPE": 0, "CLASSIFICATION_TYPE": "U", "NORAD_CAT_ID": 36053, "ELEMENT_SET_NO": 999, "REV_AT_EPOCH": 87527, "BSTAR": 0.0011991494, "MEAN_MOTION_DOT": 5.433e-05, "MEAN_MOTION_DDOT": 0}, "tle": {"line1": "1 36053U 93036AXQ 25352.41571581  .00005433  00000+0  11991-2 0  9994", "line2": "2 36053  73.8703 141.7937 0032542  88.9780 271.5111 14.57247175875275"}}, "geometry": {"type": "Point", "coordinates": [-107.03837649282379, 72.63641388869183]}}, {"type": "Feature", "properties": {"norad_id": 36058, "name": "COSMOS 2251 DEB", "group": "cosmos-2251-debris", "lat": -69.32409476573307, "lon": -109.04995066444845, "alt_km": 710.8081290426098, "timestamp": "2025-12-18T23:35:49.460340+00:00", "meta": {"OBJECT_NAME": "COSMOS 2251 DEB", "OBJECT_ID": "1993-036AXV", "EPOCH": "2025-12-16T09:31:35.831136", "MEAN_MOTION": 14.58710964, "ECCENTRICITY": 0.00443273, "INCLINATION": 74.0236, "RA_OF_ASC_NODE": 26.4887, "ARG_OF_PERICENTER": 159.9009, "MEAN_ANOMALY": 200.3914, "EPHEMERIS_TYPE": 0, "CLASSIFICATION_TYPE": "U", "NORAD_CAT_ID": 36058, "ELEMENT_SET_NO": 999, "REV_AT_EPOCH": 66164, "BSTAR": 0.00034845634, "MEAN_MOTION_DOT": 1.618e-05, "MEAN_MOTION_DDOT": 0}, "tle": {"line1": "1 36058U 93036AXV 25350.39694249  .00001618  00000+0  34846-3 0  9997", "line2": "2 36058  74.0236  26.4887 0044327 159.9009 200.3914 14.58710964661641"}}, "geometry": {"type": "Point", "coordinates": [-109.04995066444845, -69.32409476573307]}}, {"type": "Feature", "properties": {"norad_id": 36060, "name": "COSMOS 2251 DEB", "group": "cosmos-2251-debris", "lat": 34.47895829736427, "lon": 31.64539424512606, "alt_km": 760.2392829126293, "timestamp": "2025-12-18T23:35:49.460380+00:00", "meta": {"OBJECT_NAME": "COSMOS 2251 DEB", "OBJECT_ID": "1993-036AXX", "EPOCH": "2025-12-18T07:56:47.942016", "MEAN_MOTION": 14.4201191, "ECCENTRICITY": 0.00154616, "INCLINATION": 74.0282, "RA_OF_ASC_NODE": 224.1973, "ARG_OF_PERICENTER": 320.5439, "MEAN_ANOMALY": 39.459, "EPHEMERIS_TYPE": 0, "CLASSIFICATION_TYPE": "U", "NORAD_CAT_ID": 36060, "ELEMENT_SET_NO": 999, "REV_AT_EPOCH": 85090, "BSTAR": 0.00025465376, "MEAN_MOTION_DOT": 8.1e-06, "MEAN_MOTION_DDOT": 0}, "tle": {"line1": "1 36060U 93036AXX 25352.33111044  .00000810  00000+0  25465-3 0  9993", "line2": "2 36060  74.0282 224.1973 0015461 320.5439  39.4590 14.42011910850906"}}, "geometry": {"type": "Point", "coordinates": [31.64539424512606, 34.47895829736427]}}, {"type": "Feature", "properties": {"norad_id": 36061, "name": "COSMOS 2251 DEB", "group": "cosmos-2251-debris", "lat": 38.58153334168929, "lon": 155.12353975495657, "alt_km": 764.8421972682618, "timestamp": "2025-12-18T23:35:49.460392+00:00", "meta": {"OBJECT_NAME": "COSMOS 2251 DEB", "OBJECT_ID": "1993-036AXY", "EPOCH": "2025-12-15T17:55:08.095872", "MEAN_MOTION": 14.33713146, "ECCENTRICITY": 0.00367991, "INCLINATION": 74.0242, "RA_OF_ASC_NODE": 354.2562, "ARG_OF_PERICENTER": 81.2237, "MEAN_ANOMALY": 279.3079, "EPHEMERIS_TYPE": 0, "CLASSIFICATION_TYPE": "U", "NORAD_CAT_ID": 36061, "ELEMENT_SET_NO": 999, "REV_AT_EPOCH": 65147, "BSTAR": 0.00027590632, "MEAN_MOTION_DOT": 7.46e-06, "MEAN_MOTION_DDOT": 0}, "tle": {"line1": "1 36061U 93036AXY 25349.74662148  .00000746  00000+0  27591-3 0  9991", "line2": "2 36061  74.0242 354.2562 0036799  81.2237 279.3079 14.33713146651474"}}, "geometry": {"type": "Point", "coordinates": [155.12353975495657, 38.58153334168929]}}, {"type": "Feature", "properties": {"norad_id": 36073, "name": "COSMOS 2251 DEB", "group": "cosmos-2251-debris", "lat": -72.67488034187913, "lon": -162.27472627155075, "alt_km": 789.1606260967192, "timestamp": "2025-12-18T23:35:49.460402+00:00", "meta": {"OBJECT_NAME": "COSMOS 2251 DEB", "OBJECT_ID": "1993-036AYL", "EPOCH": "2025-12-18T03:58:06.481920", "MEAN_MOTION": 14.34959898, "ECCENTRICITY": 0.00240895, "INCLINATION": 74.0326, "RA_OF_ASC_NODE": 312.6126, "ARG_OF_PERICENTER": 19.0207, "MEAN_ANOMALY": 341.1839, "EPHEMERIS_TYPE": 0, "CLASSIFICATION_TYPE": "U", "NORAD_CAT_ID": 36073, "ELEMENT_SET_NO": 999, "REV_AT_EPOCH": 70285, "BSTAR": 0.0001893667, "MEAN_MOTION_DOT": 5.14e-06, "MEAN_MOTION_DDOT": 0}, "tle": {"line1": "1 36073U 93036AYL 25352.16535280  .00000514  00000+0  18937-3 0  9997", "line2": "2 36073  74.0326 312.6126 0024089  19.0207 341.1839 14.34959898702857"}}, "geometry": {"type": "Point", "coordinates": [-162.27472627155075, -72.67488034187913]}}, {"type": "Feature", "properties": {"norad_id": 36074, "name": "COSMOS 2251 DEB", "group": "cosmos-2251-debris", "lat": -54.478643889162846, "lon": 172.5605457028558, "alt_km": 782.3353277204997, "timestamp": "2025-12-18T23:35:49.460413+00:00", "meta": {"OBJECT_NAME": "COSMOS 2251 DEB", "OBJECT_ID": "1993-036AYM", "EPOCH": "2025-12-17T04:55:34.739616", "MEAN_MOTION": 14.43760583, "ECCENTRICITY": 0.00415505, "INCLINATION": 73.9924, "RA_OF_ASC_NODE": 332.1608, "ARG_OF_PERICENTER": 62.4035, "MEAN_ANOMALY": 298.1332, "EPHEMERIS_TYPE": 0, "CLASSIFICATION_TYPE": "U", "NORAD_CAT_ID": 36074, "ELEMENT_SET_NO": 999, "REV_AT_EPOCH": 85974, "BSTAR": 0.00075567049, "MEAN_MOTION_DOT": 2.571e-05, "MEAN_MOTION_DDOT": 0}, "tle": {"line1": "1 36074U 93036AYM 25351.20526319  .00002571  00000+0  75567-3 0  9992", "line2": "2 36074  73.9924 332.1608 0041550  62.4035 298.1332 14.43760583859746"}}, "geometry": {"type": "Point", "coordinates": [172.5605457028558, -54.478643889162846]}}]}